{
  "type": "FeatureCollection",
  "features": [
    {
      "type": "Feature",
      "properties": {
        "norad_id": 66920,
        "name": "HULIANWANG DIGUI-110",
        "group": "last-30-days",
        "lat": -30.267360197142686,
        "lon": -94.320019675777,
        "alt_km": 890.1435291774405,
        "timestamp": "2025-12-27T16:33:28.974270+00:00",
        "meta_object_name": "HULIANWANG DIGUI-110",
        "meta_object_id": "2025-285F",
        "meta_epoch": "2025-12-27T12:05:15.893088",
        "meta_mean_motion": 14.02447262,
        "meta_eccentricity": 0.0003197,
        "meta_inclination": 50.009,
        "meta_ra_of_asc_node": 57.107,
        "meta_arg_of_pericenter": 344.0544,
        "meta_mean_anomaly": 16.0259,
        "meta_ephemeris_type": 0,
        "meta_classification_type": "U",
        "meta_norad_cat_id": 66920,
        "meta_element_set_no": 999,
        "meta_rev_at_epoch": 298,
        "meta_bstar": 0.0001212,
        "meta_mean_motion_dot": 3.6e-07,
        "meta_mean_motion_ddot": 0,
        "tle_line1": "1 66920U 25285F   25361.50365617  .00000036  00000+0  12120-3 0  9992",
        "tle_line2": "2 66920  50.0090  57.1070 0003197 344.0544  16.0259 14.02447262  2987"
      },
      "geometry": {
        "type": "Point",
        "coordinates": [
          -94.320019675777,
          -30.267360197142686
        ]
      }
    },
    {
      "type": "Feature",
      "properties": {
        "norad_id": 66921,
        "name": "HULIANWANG DIGUI-111",
        "group": "last-30-days",
        "lat": -33.187330767820605,
        "lon": -90.36795496232303,
        "alt_km": 890.5577667815078,
        "timestamp": "2025-12-27T16:33:28.974282+00:00",
        "meta_object_name": "HULIANWANG DIGUI-111",
        "meta_object_id": "2025-285G",
        "meta_epoch": "2025-12-27T12:04:00.490944",
        "meta_mean_motion": 14.02553861,
        "meta_eccentricity": 0.0004779,
        "meta_inclination": 50.0128,
        "meta_ra_of_asc_node": 57.0997,
        "meta_arg_of_pericenter": 347.7308,
        "meta_mean_anomaly": 12.3479,
        "meta_ephemeris_type": 0,
        "meta_classification_type": "U",
        "meta_norad_cat_id": 66921,
        "meta_element_set_no": 999,
        "meta_rev_at_epoch": 298,
        "meta_bstar": 1.8388e-05,
        "meta_mean_motion_dot": -1.23e-06,
        "meta_mean_motion_ddot": 0,
        "tle_line1": "1 66921U 25285G   25361.50278346 -.00000123  00000+0  18388-4 0  9996",
        "tle_line2": "2 66921  50.0128  57.0997 0004779 347.7308  12.3479 14.02553861  2988"
      },
      "geometry": {
        "type": "Point",
        "coordinates": [
          -90.36795496232303,
          -33.187330767820605
        ]
      }
    },
    {
      "type": "Feature",
      "properties": {
        "norad_id": 66922,
        "name": "HULIANWANG DIGUI-112",
        "group": "last-30-days",
        "lat": -37.15919526545001,
        "lon": -84.17708449821936,
        "alt_km": 890.5928720650945,
        "timestamp": "2025-12-27T16:33:28.974293+00:00",
        "meta_object_name": "HULIANWANG DIGUI-112",
        "meta_object_id": "2025-285H",
        "meta_epoch": "2025-12-27T12:02:11.999328",
        "meta_mean_motion": 14.02693799,
        "meta_eccentricity": 0.0004915,
        "meta_inclination": 50.0101,
        "meta_ra_of_asc_node": 57.0843,
        "meta_arg_of_pericenter": 358.8707,
        "meta_mean_anomaly": 1.2185,
        "meta_ephemeris_type": 0,
        "meta_classification_type": "U",
        "meta_norad_cat_id": 66922,
        "meta_element_set_no": 999,
        "meta_rev_at_epoch": 298,
        "meta_bstar": 0.00017002,
        "meta_mean_motion_dot": 1.13e-06,
        "meta_mean_motion_ddot": 0,
        "tle_line1": "1 66922U 25285H   25361.50152777  .00000113  00000+0  17002-3 0  9995",
        "tle_line2": "2 66922  50.0101  57.0843 0004915 358.8707   1.2185 14.02693799  2984"
      },
      "geometry": {
        "type": "Point",
        "coordinates": [
          -84.17708449821936,
          -37.15919526545001
        ]
      }
    },
    {
      "type": "Feature",
      "properties": {
        "norad_id": 66923,
        "name": "HULIANWANG DIGUI-113",
        "group": "last-30-days",
        "lat": -41.15859712379506,
        "lon": -76.49664932373189,
        "alt_km": 888.4735620932825,
        "timestamp": "2025-12-27T16:33:28.974303+00:00",
        "meta_object_name": "HULIANWANG DIGUI-113",
        "meta_object_id": "2025-285J",
        "meta_epoch": "2025-12-27T10:17:37.359168",
        "meta_mean_motion": 14.02922953,
        "meta_eccentricity": 0.0003193,
        "meta_inclination": 50.011,
        "meta_ra_of_asc_node": 57.3693,
        "meta_arg_of_pericenter": 344.4808,
        "meta_mean_anomaly": 15.5998,
        "meta_ephemeris_type": 0,
        "meta_classification_type": "U",
        "meta_norad_cat_id": 66923,
        "meta_element_set_no": 999,
        "meta_rev_at_epoch": 297,
        "meta_bstar": -1.6332e-06,
        "meta_mean_motion_dot": -1.54e-06,
        "meta_mean_motion_ddot": 0,
        "tle_line1": "1 66923U 25285J   25361.42890462 -.00000154  00000+0 -16332-5 0  9991",
        "tle_line2": "2 66923  50.0110  57.3693 0003193 344.4808  15.5998 14.02922953  2977"
      },
      "geometry": {
        "type": "Point",
        "coordinates": [
          -76.49664932373189,
          -41.15859712379506
        ]
      }
    },
    {
      "type": "Feature",
      "properties": {
        "norad_id": 66924,
        "name": "CZ-8A R/B",
        "group": "last-30-days",
        "lat": 34.58544431321304,
        "lon": 87.87782398595401,
        "alt_km": 815.8467741321147,
        "timestamp": "2025-12-27T16:33:28.974315+00:00",
        "meta_object_name": "CZ-8A R/B",
        "meta_object_id": "2025-285K",
        "meta_epoch": "2025-12-27T09:37:32.123136",
        "meta_mean_motion": 14.30507714,
        "meta_eccentricity": 0.0119224,
        "meta_inclination": 50.0086,
        "meta_ra_of_asc_node": 53.746,
        "meta_arg_of_pericenter": 158.4223,
        "meta_mean_anomaly": 202.1776,
        "meta_ephemeris_type": 0,
        "meta_classification_type": "U",
        "meta_norad_cat_id": 66924,
        "meta_element_set_no": 999,
        "meta_rev_at_epoch": 302,
        "meta_bstar": 8.3486e-05,
        "meta_mean_motion_dot": 7.1e-07,
        "meta_mean_motion_ddot": 0,
        "tle_line1": "1 66924U 25285K   25361.40106624  .00000071  00000+0  83486-4 0  9999",
        "tle_line2": "2 66924  50.0086  53.7460 0119224 158.4223 202.1776 14.30507714  3029"
      },
      "geometry": {
        "type": "Point",
        "coordinates": [
          87.87782398595401,
          34.58544431321304
        ]
      }
    },
    {
      "type": "Feature",
      "properties": {
        "norad_id": 66925,
        "name": "STARLINK-35945",
        "group": "last-30-days",
        "lat": 51.20116243362117,
        "lon": 87.37347646871065,
        "alt_km": 403.1696562882835,
        "timestamp": "2025-12-27T16:33:28.974326+00:00",
        "meta_object_name": "STARLINK-35945",
        "meta_object_id": "2025-286A",
        "meta_epoch": "2025-12-27T12:00:02.000160",
        "meta_mean_motion": 15.52887,
        "meta_eccentricity": 0.0001334,
        "meta_inclination": 53.1593,
        "meta_ra_of_asc_node": 337.1185,
        "meta_arg_of_pericenter": 67.2725,
        "meta_mean_anomaly": 53.8722,
        "meta_ephemeris_type": 0,
        "meta_classification_type": "U",
        "meta_norad_cat_id": 66925,
        "meta_element_set_no": 999,
        "meta_rev_at_epoch": 436,
        "meta_bstar": -0.036123,
        "meta_mean_motion_dot": -0.02037034,
        "meta_mean_motion_ddot": 0,
        "tle_line1": "1 66925U 25286A   25361.50002315 -.02037034  00000+0 -36123-1 0  9990",
        "tle_line2": "2 66925  53.1593 337.1185 0001334  67.2725  53.8722 15.52887000  4360"
      },
      "geometry": {
        "type": "Point",
        "coordinates": [
          87.37347646871065,
          51.20116243362117
        ]
      }
    },
    {
      "type": "Feature",
      "properties": {
        "norad_id": 66926,
        "name": "STARLINK-35942",
        "group": "last-30-days",
        "lat": 49.556306107893604,
        "lon": 37.861175402714544,
        "alt_km": 409.05492714521733,
        "timestamp": "2025-12-27T16:33:28.974336+00:00",
        "meta_object_name": "STARLINK-35942",
        "meta_object_id": "2025-286B",
        "meta_epoch": "2025-12-27T12:00:02.000160",
        "meta_mean_motion": 15.50920084,
        "meta_eccentricity": 0.0001213,
        "meta_inclination": 53.1592,
        "meta_ra_of_asc_node": 337.1787,
        "meta_arg_of_pericenter": 56.3789,
        "meta_mean_anomaly": 35.1096,
        "meta_ephemeris_type": 0,
        "meta_classification_type": "U",
        "meta_norad_cat_id": 66926,
        "meta_element_set_no": 999,
        "meta_rev_at_epoch": 436,
        "meta_bstar": -0.038082,
        "meta_mean_motion_dot": -0.02003696,
        "meta_mean_motion_ddot": 0,
        "tle_line1": "1 66926U 25286B   25361.50002315 -.02003696  00000+0 -38082-1 0  9994",
        "tle_line2": "2 66926  53.1592 337.1787 0001213  56.3789  35.1096 15.50920084  4368"
      },
      "geometry": {
        "type": "Point",
        "coordinates": [
          37.861175402714544,
          49.556306107893604
        ]
      }
    }
  ]
}